{"type": "FeatureCollection", "features": [ {"type": "Feature", "properties": {"norad_id": 30771, "name": "FENGYUN 1C DEB", "group": "fengyun-1c-debris", "lat": -38.28425415032047, "lon": 149.12178499471327, "alt_km": 741.606460944764, "timestamp": "2025-12-26T09:30:53.916842+00:00", "meta": {"OBJECT_NAME": "FENGYUN 1C DEB", "OBJECT_ID": "1999-025AUH", "EPOCH": "2025-12-25T20:51:24.197184", "MEAN_MOTION": 14.43376589, "ECCENTRICITY": 0.00221398, "INCLINATION": 98.9066, "RA_OF_ASC_NODE": 335.6806, "ARG_OF_PERICENTER": 260.2033, "MEAN_ANOMALY": 99.6655, "EPHEMERIS_TYPE": 0, "CLASSIFICATION_TYPE": "U", "NORAD_CAT_ID": 30771, "ELEMENT_SET_NO": 999, "REV_AT_EPOCH": 97253, "BSTAR": 0.0025623969, "MEAN_MOTION_DOT": 8.634e-05, "MEAN_MOTION_DDOT": 0}, "tle": {"line1": "1 30771U 99025AUH 25359.86903006  .00008634  00000+0  25624-2 0  9990", "line2": "2 30771  98.9066 335.6806 0022139 260.2033  99.6655 14.43376589972538"}}, "geometry": {"type": "Point", "coordinates": [149.12178499471327, -38.28425415032047]}}, {"type": "Feature", "properties": {"norad_id": 30802, "name": "FENGYUN 1C DEB", "group": "fengyun-1c-debris", "lat": 1.6259187388133325, "lon": -92.29814266264195, "alt_km": 798.4065670138325, "timestamp": "2025-12-26T09:30:53.916852+00:00", "meta": {"OBJECT_NAME": "FENGYUN 1C DEB", "OBJECT_ID": "1999-025AUL", "EPOCH": "2025-12-26T03:57:17.664192", "MEAN_MOTION": 14.32566101, "ECCENTRICITY": 0.00175, "INCLINATION": 98.8364, "RA_OF_ASC_NODE": 87.2128, "ARG_OF_PERICENTER": 359.5195, "MEAN_ANOMALY": 64.6177, "EPHEMERIS_TYPE": 0, "CLASSIFICATION_TYPE": "U", "NORAD_CAT_ID": 30802, "ELEMENT_SET_NO": 999, "REV_AT_EPOCH": 97395, "BSTAR": 0.0016042, "MEAN_MOTION_DOT": 4.317e-05, "MEAN_MOTION_DDOT": 0}, "tle": {"line1": "1 30802U 99025AUL 25360.16478778  .00004317  00000+0  16042-2 0  9991", "line2": "2 30802  98.8364  87.2128 0017500 359.5195  64.6177 14.32566101973954"}}, "geometry": {"type": "Point", "coordinates": [-92.29814266264195, 1.6259187388133325]}}, {"type": "Feature", "properties": {"norad_id": 30803, "name": "FENGYUN 1C DEB", "group": "fengyun-1c-debris", "lat": -0.7429899991564552, "lon": -146.14060963868695, "alt_km": 783.3670418822503, "timestamp": "2025-12-26T09:30:53.916862+00:00", "meta": {"OBJECT_NAME": "FENGYUN 1C DEB", "OBJECT_ID": "1999-025AUM", "EPOCH": "2025-12-26T02:09:58.470048", "MEAN_MOTION": 14.11307771, "ECCENTRICITY": 0.0107536, "INCLINATION": 99.2453, "RA_OF_ASC_NODE": 33.6652, "ARG_OF_PERICENTER": 164.6015, "MEAN_ANOMALY": 260.8339, "EPHEMERIS_TYPE": 0, "CLASSIFICATION_TYPE": "U", "NORAD_CAT_ID": 30803, "ELEMENT_SET_NO": 999, "REV_AT_EPOCH": 96187, "BSTAR": 0.001151, "MEAN_MOTION_DOT": 2.15e-05, "MEAN_MOTION_DDOT": 0}, "tle": {"line1": "1 30803U 99025AUM 25360.09026007  .00002150  00000+0  11510-2 0  9996", "line2": "2 30803  99.2453  33.6652 0107536 164.6015 260.8339 14.11307771961872"}}, "geometry": {"type": "Point", "coordinates": [-146.14060963868695, -0.7429899991564552]}}, {"type": "Feature", "properties": {"norad_id": 30804, "name": "FENGYUN 1C DEB", "group": "fengyun-1c-debris", "lat": 1.3995768034341374, "lon": -113.0808522675991, "alt_km": 597.5611139134717, "timestamp": "2025-12-26T09:30:53.916872+00:00", "meta": {"OBJECT_NAME": "FENGYUN 1C DEB", "OBJECT_ID": "1999-025AUN", "EPOCH": "2025-12-26T03:53:06.114048", "MEAN_MOTION": 14.546727, "ECCENTRICITY": 0.0185994, "INCLINATION": 98.8931, "RA_OF_ASC_NODE": 66.4505, "ARG_OF_PERICENTER": 149.9275, "MEAN_ANOMALY": 239.7586, "EPHEMERIS_TYPE": 0, "CLASSIFICATION_TYPE": "U", "NORAD_CAT_ID": 30804, "ELEMENT_SET_NO": 999, "REV_AT_EPOCH": 99672, "BSTAR": 0.00042395, "MEAN_MOTION_DOT": 2.225e-05, "MEAN_MOTION_DDOT": 0}, "tle": {"line1": "1 30804U 99025AUN 25360.16187632  .00002225  00000+0  42395-3 0  9996", "line2": "2 30804  98.8931  66.4505 0185994 149.9275 239.7586 14.54672700996723"}}, "geometry": {"type": "Point", "coordinates": [-113.0808522675991, 1.3995768034341374]}}, {"type": "Feature", "properties": {"norad_id": 30805, "name": "FENGYUN 1C DEB", "group": "fengyun-1c-debris", "lat": -51.845610697681145, "lon": 54.02839205779923, "alt_km": 865.8906124019077, "timestamp": "2025-12-26T09:30:53.916882+00:00", "meta": {"OBJECT_NAME": "FENGYUN 1C DEB", "OBJECT_ID": "1999-025AUP", "EPOCH": "2025-12-26T01:20:58.343712", "MEAN_MOTION": 14.0293342, "ECCENTRICITY": 0.0070727, "INCLINATION": 98.8198, "RA_OF_ASC_NODE": 42.3008, "ARG_OF_PERICENTER": 246.6314, "MEAN_ANOMALY": 142.6198, "EPHEMERIS_TYPE": 0, "CLASSIFICATION_TYPE": "U", "NORAD_CAT_ID": 30805, "ELEMENT_SET_NO": 999, "REV_AT_EPOCH": 96147, "BSTAR": 0.0010165, "MEAN_MOTION_DOT": 1.568e-05, "MEAN_MOTION_DDOT": 0}, "tle": {"line1": "1 30805U 99025AUP 25360.05623083  .00001568  00000+0  10165-2 0  9998", "line2": "2 30805  98.8198  42.3008 0070727 246.6314 142.6198 14.02933420961473"}}, "geometry": {"type": "Point", "coordinates": [54.02839205779923, -51.845610697681145]}}, {"type": "Feature", "properties": {"norad_id": 30806, "name": "FENGYUN 1C DEB", "group": "fengyun-1c-debris", "lat": 10.4865463326187, "lon": -152.18989008832315, "alt_km": 942.4885170747857, "timestamp": "2025-12-26T09:30:53.916892+00:00", "meta": {"OBJECT_NAME": "FENGYUN 1C DEB", "OBJECT_ID": "1999-025AUQ", "EPOCH": "2025-12-24T20:45:44.138880", "MEAN_MOTION": 13.70438541, "ECCENTRICITY": 0.02678621, "INCLINATION": 99.035, "RA_OF_ASC_NODE": 24.6819, "ARG_OF_PERICENTER": 98.5447, "MEAN_ANOMALY": 76.6973, "EPHEMERIS_TYPE": 0, "CLASSIFICATION_TYPE": "U", "NORAD_CAT_ID": 30806, "ELEMENT_SET_NO": 999, "REV_AT_EPOCH": 93861, "BSTAR": 0.00071141173, "MEAN_MOTION_DOT": 7.72e-06, "MEAN_MOTION_DDOT": 0}, "tle": {"line1": "1 30806U 99025AUQ 25358.86509420  .00000772  00000+0  71141-3 0  9991", "line2": "2 30806  99.0350  24.6819 0267862  98.5447  76.6973 13.70438541938614"}}, "geometry": {"type": "Point", "coordinates": [-152.18989008832315, 10.4865463326187]}}, {"type": "Feature", "properties": {"norad_id": 30809, "name": "FENGYUN 1C DEB", "group": "fengyun-1c-debris", "lat": -13.727820451065783, "lon": 91.7182977121961, "alt_km": 829.6628176078175, "timestamp": "2025-12-26T09:30:53.916902+00:00", "meta": {"OBJECT_NAME": "FENGYUN 1C DEB", "OBJECT_ID": "1999-025AUT", "EPOCH": "2025-12-23T04:17:49.751520", "MEAN_MOTION": 14.29314737, "ECCENTRICITY": 0.00521844, "INCLINATION": 98.7888, "RA_OF_ASC_NODE": 86.3085, "ARG_OF_PERICENTER": 142.2717, "MEAN_ANOMALY": 218.2142, "EPHEMERIS_TYPE": 0, "CLASSIFICATION_TYPE": "U", "NORAD_CAT_ID": 30809, "ELEMENT_SET_NO": 999, "REV_AT_EPOCH": 97236, "BSTAR": 0.0017567777, "MEAN_MOTION_DOT": 4.495e-05, "MEAN_MOTION_DDOT": 0}, "tle": {"line1": "1 30809U 99025AUT 25357.17904805  .00004495  00000+0  17568-2 0  9991", "line2": "2 30809  98.7888  86.3085 0052184 142.2717 218.2142 14.29314737972362"}}, "geometry": {"type": "Point", "coordinates": [91.7182977121961, -13.727820451065783]}}, {"type": "Feature", "properties": {"norad_id": 30810, "name": "FENGYUN 1C DEB", "group": "fengyun-1c-debris", "lat": -41.39277762474931, "lon": -16.006478920317875, "alt_km": 1002.8887705556917, "timestamp": "2025-12-26T09:30:53.916912+00:00", "meta": {"OBJECT_NAME": "FENGYUN 1C DEB", "OBJECT_ID": "1999-025AUU", "EPOCH": "2025-12-25T03:23:24.509760", "MEAN_MOTION": 14.0426397, "ECCENTRICITY": 0.0179971, "INCLINATION": 98.6603, "RA_OF_ASC_NODE": 170.516, "ARG_OF_PERICENTER": 19.8149, "MEAN_ANOMALY": 340.9894, "EPHEMERIS_TYPE": 0, "CLASSIFICATION_TYPE": "U", "NORAD_CAT_ID": 30810, "ELEMENT_SET_NO": 999, "REV_AT_EPOCH": 94557, "BSTAR": 0.0030195, "MEAN_MOTION_DOT": 5.503e-05, "MEAN_MOTION_DDOT": 0}, "tle": {"line1": "1 30810U 99025AUU 25359.14125590  .00005503  00000+0  30195-2 0  9990", "line2": "2 30810  98.6603 170.5160 0179971  19.8149 340.9894 14.04263970945575"}}, "geometry": {"type": "Point", "coordinates": [-16.006478920317875, -41.39277762474931]}}, {"type": "Feature", "properties": {"norad_id": 30811, "name": "FENGYUN 1C DEB", "group": "fengyun-1c-debris", "lat": -46.45056988042733, "lon": -150.9471633457444, "alt_km": 1198.6948936879908, "timestamp": "2025-12-26T09:30:53.916923+00:00", "meta": {"OBJECT_NAME": "FENGYUN 1C DEB", "OBJECT_ID": "1999-025AUV", "EPOCH": "2025-12-24T01:44:19.374144", "MEAN_MOTION": 13.61876924, "ECCENTRICITY": 0.02779162, "INCLINATION": 98.7823, "RA_OF_ASC_NODE": 36.3167, "ARG_OF_PERICENTER": 16.5271, "MEAN_ANOMALY": 344.4713, "EPHEMERIS_TYPE": 0, "CLASSIFICATION_TYPE": "U", "NORAD_CAT_ID": 30811, "ELEMENT_SET_NO": 999, "REV_AT_EPOCH": 93021, "BSTAR": 0.001582937, "MEAN_MOTION_DOT": 1.538e-05, "MEAN_MOTION_DDOT": 0}, "tle": {"line1": "1 30811U 99025AUV 25358.07244646  .00001538  00000+0  15829-2 0  9997", "line2": "2 30811  98.7823  36.3167 0277916  16.5271 344.4713 13.61876924930210"}}, "geometry": {"type": "Point", "coordinates": [-150.9471633457444, -46.45056988042733]}}, {"type": "Feature", "properties": {"norad_id": 30814, "name": "FENGYUN 1C DEB", "group": "fengyun-1c-debris", "lat": 80.88975626865532, "lon": -107.95360582485175, "alt_km": 686.8657112701967, "timestamp": "2025-12-26T09:30:53.916933+00:00", "meta": {"OBJECT_NAME": "FENGYUN 1C DEB", "OBJECT_ID": "1999-025AUY", "EPOCH": "2025-12-25T21:44:01.114944", "MEAN_MOTION": 14.60746579, "ECCENTRICITY": 0.0030565, "INCLINATION": 99.0831, "RA_OF_ASC_NODE": 337.5626, "ARG_OF_PERICENTER": 190.6366, "MEAN_ANOMALY": 199.1367, "EPHEMERIS_TYPE": 0, "CLASSIFICATION_TYPE": "U", "NORAD_CAT_ID": 30814, "ELEMENT_SET_NO": 999, "REV_AT_EPOCH": 97934, "BSTAR": 0.0025628, "MEAN_MOTION_DOT": 0.00012548, "MEAN_MOTION_DDOT": 0}, "tle": {"line1": "1 30814U 99025AUY 25359.90556846  .00012548  00000+0  25628-2 0  9992", "line2": "2 30814  99.0831 337.5626 0030565 190.6366 199.1367 14.60746579979347"}}, "geometry": {"type": "Point", "coordinates": [-107.95360582485175, 80.88975626865532]}}]}